[{"OBJECT_NAME":"GAOFEN-9 05","OBJECT_ID":"2020-058A","EPOCH":"2026-03-10T00:01:50.876256","MEAN_MOTION":15.30293976,"ECCENTRICITY":0.0010522,"INCLINATION":97.2228,"RA_OF_ASC_NODE":111.963,"ARG_OF_PERICENTER":91.0204,"MEAN_ANOMALY":269.2242,"EPHEMERIS_TYPE":0,"CLASSIFICATION_TYPE":"U","NORAD_CAT_ID":46232,"ELEMENT_SET_NO":999,"REV_AT_EPOCH":30843,"BSTAR":0.00025120304,"MEAN_MOTION_DOT":7.299e-5,"MEAN_MOTION_DDOT":0},{"OBJECT_NAME":"STARLINK-31722","OBJECT_ID":"2024-074R","EPOCH":"2026-03-09T03:08:23.709408","MEAN_MOTION":15.27564383,"ECCENTRICITY":8.858e-5,"INCLINATION":43.0032,"RA_OF_ASC_NODE":346.2692,"ARG_OF_PERICENTER":267.8976,"MEAN_ANOMALY":92.1774,"EPHEMERIS_TYPE":0,"CLASSIFICATION_TYPE":"U","NORAD_CAT_ID":59549,"ELEMENT_SET_NO":999,"REV_AT_EPOCH":10593,"BSTAR":-0.00010874237,"MEAN_MOTION_DOT":-3.251e-5,"MEAN_MOTION_DDOT":0}]
